OBJECT_NAME,OBJECT_ID,EPOCH,MEAN_MOTION,ECCENTRICITY,INCLINATION,RA_OF_ASC_NODE,ARG_OF_PERICENTER,MEAN_ANOMALY,EPHEMERIS_TYPE,CLASSIFICATION_TYPE,NORAD_CAT_ID,ELEMENT_SET_NO,REV_AT_EPOCH,BSTAR,MEAN_MOTION_DOT,MEAN_MOTION_DDOT
DMSP 5D-3 F16 (USA 172),2003-048A,2026-07-02T17:46:20.661888,14.14484355,.0008195,98.9886,207.6714,101.5582,30.2247,0,U,28054,999,17168,.26067E-4,.5E-7,0
METEOSAT-9 (MSG-2),2005-049B,2026-07-02T18:18:46.536768,1.00267373,.0002567,9.3943,54.0128,359.4901,187.7563,0,U,28912,999,715,0,.13E-5,0
DMSP 5D-3 F17 (USA 191),2006-050A,2026-07-02T17:25:41.048256,14.14995033,.0010483,98.7380,189.9783,18.2426,341.9121,0,U,29522,999,1462,.42834E-4,.4E-6,0
FENGYUN 3A,2008-026A,2026-07-02T20:03:18.362016,14.19574446,.0009882,98.6885,124.3762,83.5691,276.6610,0,U,32958,999,93762,.63361E-4,.9E-6,0
GOES 14,2009-033A,2026-07-02T18:20:42.920160,1.00105344,.000223,1.7278,82.8660,26.4183,219.3743,0,U,35491,999,674,0,-.329E-5,0
DMSP 5D-3 F18 (USA 210),2009-057A,2026-07-02T18:27:44.724096,14.14905612,.0010489,98.9045,164.5050,201.2830,158.7908,0,U,35951,999,86179,.16904E-3,.282E-5,0
EWS-G2 (GOES 15),2010-008A,2026-07-02T18:40:50.971008,1.00268387,.0005372,1.3180,82.6370,46.1849,135.6761,0,U,36411,999,5979,0,.31E-6,0
COMS 1,2010-032A,2026-07-02T17:39:34.713216,0.99169036,.0011777,4.8426,75.1736,13.9183,108.0967,0,U,36744,999,5124,0,-.89E-6,0
FENGYUN 3B,2010-059A,2026-07-02T18:57:06.039072,14.14843450,.0022726,98.9609,229.8699,140.2493,273.2816,0,U,37214,999,80963,-.48917E-4,-.14E-5,0
SUOMI NPP,2011-061A,2026-07-02T18:38:50.716032,14.19520569,.000069,98.7954,124.5467,308.9130,51.1984,0,U,37849,999,76065,.58434E-4,.79E-6,0
METEOSAT-10 (MSG-3),2012-035B,2026-07-02T07:08:22.761024,1.00269475,.0001613,4.7052,60.9470,15.2569,311.3560,0,U,38552,999,5100,0,.1E-7,0
METOP-B,2012-049A,2026-07-02T17:54:16.527168,14.21443664,.0001306,98.6496,234.9343,327.8556,32.2542,0,U,38771,999,71547,.79542E-4,.131E-5,0
INSAT-3D,2013-038B,2026-07-02T16:36:03.356928,1.00268803,.0001065,1.9639,82.3587,14.2918,202.5834,0,U,39216,999,4723,0,-.33E-5,0
FENGYUN 3C,2013-052A,2026-07-02T19:17:44.109600,14.15758644,.0014301,98.4995,156.9623,343.3047,16.7655,0,U,39260,999,66077,.7298E-4,.102E-5,0
METEOR-M 2,2014-037A,2026-07-02T18:31:55.140672,14.21466066,.0005919,98.5120,158.9591,4.1216,356.0010,0,U,40069,999,62153,.10646E-3,.191E-5,0
HIMAWARI-8,2014-060A,2026-07-02T18:04:24.028032,1.00271911,.0001053,0.0090,350.5913,117.0732,224.9023,0,U,40267,999,4291,0,-.265E-5,0
FENGYUN 2G,2014-090A,2026-07-02T18:05:02.363712,1.00266657,.00036,5.6765,72.6321,150.3525,68.6267,0,U,40367,999,4215,0,-.293E-5,0
METEOSAT-11 (MSG-4),2015-034A,2026-07-02T17:26:30.277248,1.00267949,.0002236,3.2394,71.0131,349.0912,131.6062,0,U,40732,999,737,0,.71E-6,0
ELEKTRO-L 2,2015-074A,2026-07-01T22:30:52.736832,1.00271077,.00005169,6.7296,70.3426,273.6365,259.1662,0,U,41105,999,3865,0,-.111E-5,0
SENTINEL-3A,2016-011A,2026-07-02T18:50:58.903008,14.26737057,.0001424,98.6243,250.9446,94.5216,265.6127,0,U,41335,999,54028,.7413E-4,.136E-5,0
INSAT-3DR,2016-054A,2026-07-02T10:54:40.578912,1.00272241,.0010094,0.1421,85.9447,186.2693,245.9301,0,U,41752,999,3597,0,-.66E-6,0
HIMAWARI-9,2016-064A,2026-07-02T16:41:28.736736,1.00268231,.0001438,0.0302,267.9360,225.4185,178.4790,0,U,41836,999,3536,0,-.265E-5,0
GOES 16,2016-071A,2026-07-02T16:54:17.554176,1.00272031,.0000562,0.3771,85.5912,33.2401,310.7945,0,U,41866,999,3525,0,-.8E-6,0
FENGYUN 4A,2016-077A,2026-07-02T19:51:57.720096,1.00275999,.0007921,2.3604,80.1191,158.0007,104.4703,0,U,41882,999,3508,0,-.347E-5,0
CYGFM05,2016-078A,2026-07-02T15:09:48.600000,15.57329564,.0008068,34.9557,158.2652,285.0788,74.9044,0,U,41884,999,53116,.33165E-3,.25116E-3,0
CYGFM04,2016-078B,2026-07-02T05:37:02.284608,15.62360416,.0006684,34.9318,127.8224,317.2673,42.7533,0,U,41885,999,53135,.3806E-3,.34998E-3,0
CYGFM02,2016-078C,2026-07-02T12:34:44.601312,15.65519305,.0007471,34.9400,119.9613,322.8744,37.1466,0,U,41886,999,53157,.3559E-3,.37113E-3,0
CYGFM01,2016-078D,2026-07-02T14:43:41.856960,15.58029354,.0007978,34.9387,159.3160,279.6825,80.2998,0,U,41887,999,53111,.32997E-3,.25659E-3,0
CYGFM08,2016-078E,2026-07-02T06:58:11.352288,15.60797506,.0008715,34.9423,140.6357,306.3717,53.6204,0,U,41888,999,53133,.36529E-3,.31616E-3,0
CYGFM07,2016-078G,2026-07-02T05:57:59.630112,15.60901001,.0007032,34.9439,129.2429,318.0003,42.0183,0,U,41890,999,53135,.36586E-3,.31773E-3,0
CYGFM03,2016-078H,2026-07-02T12:56:50.536320,15.60905587,.0006961,34.9396,129.2367,308.1900,51.8198,0,U,41891,999,53137,.3215E-3,.27905E-3,0
