[{"name":"METEOSAT-9 (MSG-2)","l1":"1 28912U 05049B   26183.76303862  .00000130  00000+0  00000+0 0  9997","l2":"2 28912   9.3943  54.0128 0002567 359.4901 187.7563  1.00267373  7152","cat":"geostationary"},{"name":"GOES 14","l1":"1 35491U 09033A   26183.76438565 -.00000329  00000+0  00000+0 0  9994","l2":"2 35491   1.7278  82.8660 0002230  26.4183 219.3743  1.00105344  6744","cat":"geostationary"},{"name":"EWS-G2 (GOES 15)","l1":"1 36411U 10008A   26183.77836772  .00000031  00000+0  00000+0 0  9993","l2":"2 36411   1.3180  82.6370 0005372  46.1849 135.6761  1.00268387 59799","cat":"geostationary"},{"name":"COMS 1","l1":"1 36744U 10032A   26183.73581844 -.00000089  00000+0  00000+0 0  9996","l2":"2 36744   4.8426  75.1736 0011777  13.9183 108.0967  0.99169036 51243","cat":"geostationary"},{"name":"METEOSAT-10 (MSG-3)","l1":"1 38552U 12035B   26183.29748566  .00000001  00000+0  00000+0 0  9990","l2":"2 38552   4.7052  60.9470 0001613  15.2569 311.3560  1.00269475 51007","cat":"geostationary"},{"name":"INSAT-3D","l1":"1 39216U 13038B   26183.69170552 -.00000330  00000+0  00000+0 0  9996","l2":"2 39216   1.9639  82.3587 0001065  14.2918 202.5834  1.00268803 47239","cat":"geostationary"},{"name":"HIMAWARI-8","l1":"1 40267U 14060A   26183.75305588 -.00000265  00000+0  00000+0 0  9993","l2":"2 40267   0.0090 350.5913 0001053 117.0732 224.9023  1.00271911 42916","cat":"geostationary"},{"name":"FENGYUN 2G","l1":"1 40367U 14090A   26183.75349958 -.00000293  00000+0  00000+0 0  9997","l2":"2 40367   5.6765  72.6321 0003600 150.3525  68.6267  1.00266657 42152","cat":"geostationary"},{"name":"METEOSAT-11 (MSG-4)","l1":"1 40732U 15034A   26183.72673932  .00000071  00000+0  00000+0 0  9994","l2":"2 40732   3.2394  71.0131 0002236 349.0912 131.6062  1.00267949  7377","cat":"geostationary"},{"name":"ELEKTRO-L 2","l1":"1 41105U 15074A   26182.93811038 -.00000111  00000+0  00000+0 0  9992","l2":"2 41105   6.7296  70.3426 0000516 273.6365 259.1662  1.00271077 38657","cat":"geostationary"},{"name":"INSAT-3DR","l1":"1 41752U 16054A   26183.45463633 -.00000066  00000+0  00000+0 0  9990","l2":"2 41752   0.1421  85.9447 0010094 186.2693 245.9301  1.00272241 35972","cat":"geostationary"},{"name":"HIMAWARI-9","l1":"1 41836U 16064A   26183.69547149 -.00000265  00000+0  00000+0 0  9996","l2":"2 41836   0.0302 267.9360 0001438 225.4185 178.4790  1.00268231 35361","cat":"geostationary"},{"name":"GOES 16","l1":"1 41866U 16071A   26183.70436984 -.00000080  00000+0  00000+0 0  9998","l2":"2 41866   0.3771  85.5912 0000562  33.2401 310.7945  1.00272031 35251","cat":"geostationary"},{"name":"FENGYUN 4A","l1":"1 41882U 16077A   26183.82775139 -.00000347  00000+0  00000+0 0  9999","l2":"2 41882   2.3604  80.1191 0007921 158.0007 104.4703  1.00275999 35087","cat":"geostationary"},{"name":"DMSP 5D-3 F16 (USA 172)","l1":"1 28054U 03048A   26183.74051692  .00000005  00000+0  26067-4 0  9997","l2":"2 28054  98.9886 207.6714 0008195 101.5582  30.2247 14.14484355171681","cat":"science"},{"name":"DMSP 5D-3 F17 (USA 191)","l1":"1 29522U 06050A   26183.72616954  .00000040  00000+0  42834-4 0  9999","l2":"2 29522  98.7380 189.9783 0010483  18.2426 341.9121 14.14995033 14624","cat":"science"},{"name":"FENGYUN 3A","l1":"1 32958U 08026A   26183.83562919  .00000090  00000+0  63361-4 0  9997","l2":"2 32958  98.6885 124.3762 0009882  83.5691 276.6610 14.19574446937627","cat":"science"},{"name":"DMSP 5D-3 F18 (USA 210)","l1":"1 35951U 09057A   26183.76926764  .00000282  00000+0  16904-3 0  9995","l2":"2 35951  98.9045 164.5050 0010489 201.2830 158.7908 14.14905612861791","cat":"science"},{"name":"FENGYUN 3B","l1":"1 37214U 10059A   26183.78965323 -.00000140  00000+0 -48917-4 0  9994","l2":"2 37214  98.9609 229.8699 0022726 140.2493 273.2816 14.14843450809636","cat":"science"},{"name":"SUOMI NPP","l1":"1 37849U 11061A   26183.77697588  .00000079  00000+0  58434-4 0  9990","l2":"2 37849  98.7954 124.5467 0000690 308.9130  51.1984 14.19520569760657","cat":"other"},{"name":"METOP-B","l1":"1 38771U 12049A   26183.74602462  .00000131  00000+0  79542-4 0  9998","l2":"2 38771  98.6496 234.9343 0001306 327.8556  32.2542 14.21443664715471","cat":"science"},{"name":"FENGYUN 3C","l1":"1 39260U 13052A   26183.80398275  .00000102  00000+0  72980-4 0  9995","l2":"2 39260  98.4995 156.9623 0014301 343.3047  16.7655 14.15758644660772","cat":"science"},{"name":"METEOR-M 2","l1":"1 40069U 14037A   26183.77216598  .00000191  00000+0  10646-3 0  9999","l2":"2 40069  98.5120 158.9591 0005919   4.1216 356.0010 14.21466066621530","cat":"science"},{"name":"SENTINEL-3A","l1":"1 41335U 16011A   26183.78540397  .00000136  00000+0  74130-4 0  9996","l2":"2 41335  98.6243 250.9446 0001424  94.5216 265.6127 14.26737057540288","cat":"science"},{"name":"CYGFM05","l1":"1 41884U 16078A   26183.63181250  .00025116  00000+0  33165-3 0  9998","l2":"2 41884  34.9557 158.2652 0008068 285.0788  74.9044 15.57329564531160","cat":"other"},{"name":"CYGFM04","l1":"1 41885U 16078B   26183.23405422  .00034998  00000+0  38060-3 0  9992","l2":"2 41885  34.9318 127.8224 0006684 317.2673  42.7533 15.62360416531350","cat":"other"},{"name":"CYGFM02","l1":"1 41886U 16078C   26183.52412733  .00037113  00000+0  35590-3 0  9995","l2":"2 41886  34.9400 119.9613 0007471 322.8744  37.1466 15.65519305531576","cat":"other"},{"name":"CYGFM01","l1":"1 41887U 16078D   26183.61367890  .00025659  00000+0  32997-3 0  9999","l2":"2 41887  34.9387 159.3160 0007978 279.6825  80.2998 15.58029354531118","cat":"other"},{"name":"CYGFM08","l1":"1 41888U 16078E   26183.29040917  .00031616  00000+0  36529-3 0  9997","l2":"2 41888  34.9423 140.6357 0008715 306.3717  53.6204 15.60797506531331","cat":"other"},{"name":"CYGFM07","l1":"1 41890U 16078G   26183.24860683  .00031773  00000+0  36586-3 0  9992","l2":"2 41890  34.9439 129.2429 0007032 318.0003  42.0183 15.60901001531350","cat":"other"},{"name":"CYGFM03","l1":"1 41891U 16078H   26183.53947380  .00027905  00000+0  32150-3 0  9990","l2":"2 41891  34.9396 129.2367 0006961 308.1900  51.8198 15.60905587531379","cat":"other"}]